X,Y,OBJECTID,COUNTY,LATITUDE,LONGITUDE,STATION,RAIL_LINE,MUN_LABEL,ATIS_ID,AMTRAK
618521.1339,459008.9027,1,OCEAN,40.09271796,-74.04819191,Point Pleasant,North Jersey Coast Line,Point Pleasant Beach Borough,RAIL0122,N
621972.9957,480099.1444,2,MONMOUTH,40.15056656,-74.03545959,Spring Lake,North Jersey Coast Line,Spring Lake Borough,RAIL0141,N
624196.7508,491047.2206,3,MONMOUTH,40.180589,-74.02729578,Belmar,North Jersey Coast Line,Belmar Borough,RAIL0015,N
626480.9611,499505.6505,4,MONMOUTH,40.20377526,-74.01895649,Bradley Beach,North Jersey Coast Line,Bradley Beach Borough,RAIL0022,N
627622.2895,503731.9882,5,MONMOUTH,40.21536022,-74.01478753,Asbury Park,North Jersey Coast Line,Asbury Park City,RAIL0008,N
629819.0237,511866.4945,6,MONMOUTH,40.2376575,-74.00675941,Allenhurst,North Jersey Coast Line,Allenhurst Borough,RAIL0004,N
632321.8517,521958.7821,7,MONMOUTH,40.26532373,-73.9975894,Elberon,North Jersey Coast Line,Long Branch City,RAIL0040,N
634837.3384,533565.8137,8,MONMOUTH,40.29714701,-73.98833506,Long Branch,North Jersey Coast Line,Long Branch City,RAIL0074,N
627314.5681,539442.0076,9,MONMOUTH,40.31339403,-74.01519011,Monmouth Park,North Jersey Coast Line,Oceanport Borough,RAIL0162,N
620077.3952,544255.0538,10,MONMOUTH,40.32671232,-74.04105342,Little Silver,North Jersey Coast Line,Little Silver Borough,RAIL0073,N
610700.5347,552076.8104,11,MONMOUTH,40.34831262,-74.07455109,Red Bank,North Jersey Coast Line,Red Bank Borough,RAIL0130,N
599046.0416,567129.4211,12,MONMOUTH,40.38978028,-74.11613209,Middletown,North Jersey Coast Line,Middletown Township,RAIL0085,N
578328.6247,576373.7661,13,MONMOUTH,40.41538027,-74.19039437,Hazlet,North Jersey Coast Line,Hazlet Township,RAIL0059,N
569049.9408,578087.2561,14,MONMOUTH,40.42016847,-74.2236997,Aberdeen-Matawan,North Jersey Coast Line,Matawan Borough,RAIL0082,N
553278.9284,601408.5737,15,MIDDLESEX,40.4843101,-74.28013729,South Amboy,North Jersey Coast Line,South Amboy City,RAIL0139,N
555045.1463,610543.2266,16,MIDDLESEX,40.50937349,-74.27370313,Perth Amboy,North Jersey Coast Line,Perth Amboy City,RAIL0119,N
553877.5535,627747.7001,17,MIDDLESEX,40.55660956,-74.27774645,Woodbridge,North Jersey Coast Line,Woodbridge Township,RAIL0158,N
553936.5324,635426.6221,18,MIDDLESEX,40.57768839,-74.27746437,Avenel,North Jersey Coast Line,Woodbridge Township,RAIL0011,N
554090.1978,645883.0359,19,UNION,40.60639088,-74.27681573,Rahway,NEC / NJCL,Rahway City,RAIL0127,N
561020.597,654315.6161,20,UNION,40.6294878,-74.25176859,Linden,NEC / NJCL,Linden City,RAIL0070,N
571133.8084,668325.0074,21,UNION,40.66785989,-74.21516754,Elizabeth,NEC / NJCL,Elizabeth City,RAIL0041,N
573617.5777,672853.8812,22,UNION,40.68026927,-74.20615891,North Elizabeth,NEC / NJCL,Elizabeth City,RAIL0109,N
577870.1492,681664.8387,23,ESSEX,40.7044153,-74.19071363,Newark Airport,NEC / NJCL,Newark City,RAIL0164,Y
585083.769,692562.4645,24,ESSEX,40.73425642,-74.16454408,Newark Penn Station,NEC / NJCL / RVL,Newark City,RAIL0107,Y
382317.769,668089.0804,25,HUNTERDON,40.666885,-74.895857,High Bridge,Raritan Valley Line,High Bridge Borough,RAIL0060,N
398945.6449,657102.0233,26,HUNTERDON,40.63691535,-74.83576307,Lebanon,Raritan Valley Line,Lebanon Borough,RAIL0068,N
416989.2646,649281.3011,27,HUNTERDON,40.61561788,-74.77065867,White House,Raritan Valley Line,Readington Township,RAIL0157,N
441085.6744,640625.3469,28,SOMERSET,40.59202749,-74.6837925,North Branch,Raritan Valley Line,Branchburg Township,RAIL0108,N
454800.0348,632938.6369,29,SOMERSET,40.57099484,-74.63436504,Raritan,Raritan Valley Line,Raritan Borough,RAIL0129,N
460462.8443,631137.8449,30,SOMERSET,40.56607341,-74.61397131,Somerville,Raritan Valley Line,Somerville Borough,RAIL0138,N
477750.2848,628877.2645,31,SOMERSET,40.55991252,-74.55173858,Bridgewater,Raritan Valley Line,Bridgewater Township,RAIL0024,N
483620.0671,629245.0117,32,SOMERSET,40.56092955,-74.53061208,Bound Brook,Raritan Valley Line,Bound Brook Borough,RAIL0021,N
502389.5266,640151.8744,33,MIDDLESEX,40.59086807,-74.46303809,Dunellen,Raritan Valley Line,Dunellen Borough,RAIL0036,N
514288.9706,650199.1844,34,UNION,40.61842707,-74.42015617,Plainfield,Raritan Valley Line,Plainfield City,RAIL0120,N
518925.2747,654113.1487,35,UNION,40.62915842,-74.40343882,Netherwood,Raritan Valley Line,Plainfield City,RAIL0102,N
523975.5529,658404.9347,36,UNION,40.64092299,-74.38522257,Fanwood,Raritan Valley Line,Fanwood Borough,RAIL0044,N
534403.6007,661529.0177,37,UNION,40.6494553,-74.34762441,Westfield,Raritan Valley Line,Westfield Town,RAIL0155,N
540724.9292,662673.9045,38,UNION,40.65256576,-74.32483369,Garwood,Raritan Valley Line,Garwood Borough,RAIL0047,N
546814.1454,663781.6792,39,UNION,40.65557127,-74.3028778,Cranford,Raritan Valley Line,Cranford Township,RAIL0032,N
446095.0237,687255.7714,40,SOMERSET,40.72005743,-74.66607101,Gladstone,Gladstone Branch/M&E,Peapack-Gladstone Borough,RAIL0049,N
448196.8078,683143.4492,41,SOMERSET,40.70877969,-74.65846127,Peapack,Gladstone Branch/M&E,Peapack-Gladstone Borough,RAIL0117,N
455024.597,674729.9913,42,SOMERSET,40.68571567,-74.63378539,Far Hills,Gladstone Branch/M&E,Far Hills Borough,RAIL0045,N
472435.4329,686047.6514,43,SOMERSET,40.71683871,-74.57103435,Bernardsville,Gladstone Branch/M&E,Bernardsville Borough,RAIL0018,N
476803.209,684065.0816,44,SOMERSET,40.71140512,-74.55527216,Basking Ridge,Gladstone Branch/M&E,Bernards Township,RAIL0012,N
478398.1562,674400.3158,45,SOMERSET,40.6848776,-74.54949888,Lyons,Gladstone Branch/M&E,Bernards Township,RAIL0076,N
485580.5733,670261.3103,46,MORRIS,40.67352404,-74.52359514,Millington,Gladstone Branch/M&E,Long Hill Township,RAIL0088,N
493850.7067,670643.9723,47,MORRIS,40.67457671,-74.49377807,Stirling,Gladstone Branch/M&E,Long Hill Township,RAIL0143,N
500919.147,671987.421,48,MORRIS,40.67826035,-74.46829152,Gillette,Gladstone Branch/M&E,Long Hill Township,RAIL0048,N
518959.4577,678108.9931,49,UNION,40.69502812,-74.4032205,Murray Hill,Gladstone Branch/M&E,New Providence Borough,RAIL0099,N
508023.9822,673474.7638,50,UNION,40.6823333,-74.44267059,Berkeley Heights,Gladstone Branch/M&E,Berkeley Heights Township,RAIL0017,N
523603.0163,684338.8999,51,UNION,40.71211414,-74.38644432,New Providence,Gladstone Branch/M&E,New Providence Borough,RAIL0104,N
531554.6313,685961.9285,52,UNION,40.71653761,-74.35774978,Summit,Morristown Line/M&E,Summit City,RAIL0145,N
540959.4288,689158.1006,53,ESSEX,40.72526434,-74.32379711,Short Hills,Morristown Line/M&E,Millburn Township,RAIL0136,N
546498.3599,689304.8063,54,ESSEX,40.72563482,-74.30381063,Millburn,Morristown Line/M&E,Millburn Township,RAIL0087,N
554366.0407,691336.4725,55,ESSEX,40.73116,-74.275404,Maplewood,Morristown Line/M&E,Maplewood Township,RAIL0081,N
558459.2317,696716.9861,56,ESSEX,40.7458998,-74.26058094,South Orange,Morristown Line/M&E,South Orange Village Township,RAIL0140,N
560553.9955,700189.9109,57,ESSEX,40.755417,-74.25298514,Mountain Station,Morristown Line/M&E,South Orange Village Township,RAIL0097,N
563107.4662,704374.3677,58,ESSEX,40.76688315,-74.2437236,Highland Avenue,Morristown Line/M&E,City of Orange Township,RAIL0061,N
566036.0876,706206.657,59,ESSEX,40.77188877,-74.23313004,Orange,Morristown Line/M&E,City of Orange Township,RAIL0112,N
569882.6905,703889.1886,60,ESSEX,40.76549444,-74.21926808,Brick Church,Morristown Line/M&E,East Orange City,RAIL0023,N
572189.032,702272.2236,61,ESSEX,40.76103536,-74.21096072,East Orange,Morristown Line/M&E,East Orange City,RAIL0037,N
583027.488,697422.7842,62,ESSEX,40.74761919,-74.17189882,Newark Broad Street,Morris & Essex Line,Newark City,RAIL0106,N
632765.7054,698546.2281,63,"NEW YORK CITY, NY",40.750053,-73.992357,New York Penn Station,NEC / NJCL / M&E,"New York City, NY",RAIL0105,Y
428376.443,755539.6762,64,MORRIS,40.90738433,-74.73064544,Mount Olive,Montclair-Boonton Line/M&E,Mount Olive Township,RAIL0093,N
399514.6985,735464.3643,65,WARREN,40.85202342,-74.83478946,Hackettstown,Montclair-Boonton Line/M&E,Hackettstown Town,RAIL0054,N
434830.8369,751944.6351,66,MORRIS,40.89756056,-74.70726247,Netcong,Montclair-Boonton Line/M&E,Netcong Borough,RAIL0101,N
446316.8884,754387.6906,67,MORRIS,40.90433376,-74.66572843,Lake Hopatcong,Montclair-Boonton Line/M&E,Roxbury Township,RAIL0067,N
476695.2883,746731.2361,68,MORRIS,40.8834228,-74.55580534,Dover,Montclair-Boonton Line/M&E,Dover Town,RAIL0035,N
497237.0841,746899.1734,69,MORRIS,40.8838958,-74.48151076,Denville,Montclair-Boonton Line/M&E,Denville Township,RAIL0034,N
497122.8324,743974.9165,70,MORRIS,40.87586892,-74.48192617,Mount Tabor,Morristown Line/M&E,Denville Township,RAIL0094,N
498157.5147,726797.9603,71,MORRIS,40.82871816,-74.47819987,Morris Plains,Morristown Line/M&E,Morris Plains Borough,RAIL0091,N
499279.9065,715322.5535,72,MORRIS,40.79721754,-74.47415603,Morristown,Morristown Line/M&E,Morristown Town,RAIL0092,N
507797.8776,708699.2564,73,MORRIS,40.77902564,-74.44340403,Convent Station,Morristown Line/M&E,Morris Township,RAIL0030,N
515635.4505,700708.0427,74,MORRIS,40.75707241,-74.41512988,Madison,Morristown Line/M&E,Madison Borough,RAIL0077,N
524000.2547,694568.157,75,MORRIS,40.74019222,-74.38496296,Chatham,Morristown Line/M&E,Chatham Borough,RAIL0027,N
510489.3778,747659.4163,76,MORRIS,40.88596498,-74.43357817,Mountain Lakes,Montclair-Boonton Line/M&E,Mountain Lakes Borough,RAIL0096,N
517629.0998,754011.6694,77,MORRIS,40.90338377,-74.40773043,Boonton,Montclair-Boonton Line/M&E,Boonton Town,RAIL0020,N
535295.2501,761128.3261,78,MORRIS,40.92284961,-74.34377146,Towaco,Montclair-Boonton Line/M&E,Montville Township,RAIL0147,N
546885.2522,761623.4993,79,MORRIS,40.92414437,-74.30182463,Lincoln Park,Montclair-Boonton Line/M&E,Lincoln Park Borough,RAIL0069,N
556295.4033,757942.9886,80,PASSAIC,40.91397815,-74.26780523,Mountain View-Wayne,Montclair-Boonton Line/M&E,Wayne Township,RAIL0098,N
565295.8804,745835.628,81,PASSAIC,40.88067433,-74.23537061,Little Falls,Montclair-Boonton Line/M&E,Little Falls Township,RAIL0072,N
574416.3405,737437.275,82,ESSEX,40.85754114,-74.2024892,Montclair Heights,Montclair-Boonton Line/M&E,Montclair Township,RAIL0089,N
573648.6852,734222.4694,83,ESSEX,40.84872386,-74.2053036,Mountain Avenue,Montclair-Boonton Line/M&E,Montclair Township,RAIL0095,N
572534.9978,731775.0363,84,ESSEX,40.84201604,-74.20935873,Upper Montclair,Montclair-Boonton Line/M&E,Montclair Township,RAIL0150,N
573221.9338,727225.0071,85,ESSEX,40.82952022,-74.20693084,Watchung Avenue,Montclair-Boonton Line/M&E,Montclair Township,RAIL0153,N
572491.8198,722750.3447,86,ESSEX,40.81724421,-74.20962288,Walnut Street,Montclair-Boonton Line/M&E,Montclair Township,RAIL0152,N
572764.1758,719448.5797,87,ESSEX,40.80817856,-74.20867847,Bay Street-Montclair,Montclair-Boonton Line/M&E,Montclair Township,RAIL0014,N
573889.8452,716688.455,88,ESSEX,40.80059181,-74.20464546,Glen Ridge,Montclair-Boonton Line/M&E,Glen Ridge Borough,RAIL0050,N
575167.7698,713820.7822,89,ESSEX,40.79270828,-74.20006477,Bloomfield,Montclair-Boonton Line/M&E,Bloomfield Township,RAIL0019,N
575629.237,710180.7889,90,ESSEX,40.78271231,-74.19844326,Watsessing,Montclair-Boonton Line/M&E,Bloomfield Township,RAIL0154,N
619112.5067,453355.2106,91,OCEAN,40.07718894,-74.04618116,Bay Head,North Jersey Coast Line,Bay Head Borough,RAIL0013,N
301113.6109,409819.3459,92,"PHILADELPHIA, PA",39.95655351,-75.18142027,30th Street Station,Atlantic City Line,"Philadelphia, PA",RAIL0001,Y
340228.7941,399314.0385,93,CAMDEN,39.92844978,-75.04165867,Cherry Hill,Atlantic City Line,Cherry Hill Township,RAIL0028,N
351651.6666,364755.4886,94,CAMDEN,39.8337586,-75.00023659,Lindenwold,Atlantic City Line,Lindenwold Borough,RAIL0071,N
377552.3068,346361.7137,95,CAMDEN,39.78362152,-74.90770641,Atco,Atlantic City Line,Waterford Township,RAIL0009,N
407776.4845,290896.9739,96,ATLANTIC,39.63167271,-74.79949633,Hammonton,Atlantic City Line,Hammonton Town,RAIL0055,N
450336.6743,252501.3423,97,ATLANTIC,39.52654651,-74.64815394,Egg Harbor City,Atlantic City Line,Egg Harbor City,RAIL0039,N
491534.5306,215235.8631,98,ATLANTIC,39.42432412,-74.50209036,Absecon,Atlantic City Line,Absecon City,RAIL0002,N
508670.87,193016.9839,99,ATLANTIC,39.363304,-74.441476,Atlantic City,Atlantic City Line,Atlantic City,RAIL0010,N
587614.0152,830750.8197,100,"ROCKLAND, NY",41.11353988,-74.15343762,Suffern,Main/Bergen Line,"Ramapo Town, NY",RAIL0144,N
589523.9386,823776.2871,101,BERGEN,41.09437519,-74.14660862,Mahwah,Main/Bergen Line,Mahwah Township,RAIL0078,N
590836.3372,810130.5502,102,BERGEN,41.05690562,-74.14205018,Ramsey,Main/Bergen Line,Ramsey Borough,RAIL0128,N
593927.7155,800682.3608,103,BERGEN,41.03093673,-74.13098525,Allendale,Main/Bergen Line,Allendale Borough,RAIL0003,N
596043.4091,794082.5508,104,BERGEN,41.01279661,-74.12341964,Waldwick,Main/Bergen Line,Waldwick Borough,RAIL0151,N
598799.5703,788473.5283,105,BERGEN,40.99736775,-74.11352201,Ho-Ho-Kus,Main/Bergen Line,Ho-Ho-Kus Borough,RAIL0064,N
596881.2159,782382.5952,106,BERGEN,40.98067221,-74.12056784,Ridgewood,Main/Bergen Line,Ridgewood Village,RAIL0131,N
593352.8328,775654.1996,107,BERGEN,40.96224513,-74.13344979,Glen Rock-Main,Main/Bergen Line,Glen Rock Borough,RAIL0052,N
588144.0772,768452.9984,108,PASSAIC,40.94253722,-74.15241425,Hawthorne,Main/Bergen Line,Hawthorne Borough,RAIL0058,N
584063.4213,758377.8532,109,PASSAIC,40.91492573,-74.16732458,Paterson,Main/Bergen Line,Paterson City,RAIL0116,N
588042.1702,741293.3175,110,PASSAIC,40.86798806,-74.15317285,Clifton,Main/Bergen Line,Clifton City,RAIL0029,N
593391.3492,734555.3595,111,PASSAIC,40.84943323,-74.13393294,Passaic,Main/Bergen Line,Passaic City,RAIL0115,N
594159.2551,727976.6768,112,PASSAIC,40.83136648,-74.13125718,Delawanna,Main/Bergen Line,Clifton City,RAIL0033,N
596124.9264,722558.3901,113,BERGEN,40.81647081,-74.12423752,Lyndhurst,Main/Bergen Line,Lyndhurst Township,RAIL0075,N
594502.5871,775325.9716,114,BERGEN,40.96133088,-74.12929161,Glen Rock-Boro Hall,Main/Bergen Line,Glen Rock Borough,RAIL0051,N
596658.778,767534.7644,115,BERGEN,40.93991977,-74.12160633,Radburn,Main/Bergen Line,Fair Lawn Borough,RAIL0126,N
598447.7961,761200.0999,116,BERGEN,40.92251054,-74.11523143,Broadway,Main/Bergen Line,Fair Lawn Borough,RAIL0025,N
601976.9111,747528.0816,117,BERGEN,40.88493927,-74.10268496,Plauderville,Main/Bergen Line,Garfield City,RAIL0121,N
601212.0671,740868.781,118,BERGEN,40.86666974,-74.10555971,Garfield,Main/Bergen Line,Garfield City,RAIL0046,N
602653.2293,726896.032,119,BERGEN,40.82829802,-74.10057919,Rutherford,Main/Bergen Line,Rutherford Borough,RAIL0134,N
617772.635,830319.1532,120,"ROCKLAND, NY",41.11197383,-74.04399276,Spring Valley,Pascack Valley Line,"Ramapo Town, NY",RAIL0142,N
625885.2238,822357.6229,121,"ROCKLAND, NY",41.09000116,-74.01471197,Nanuet,Pascack Valley Line,"Clarkstown Town, NY",RAIL0100,N
623853.904,810756.6307,122,"ROCKLAND, NY",41.05819,-74.022312,Pearl River,Pascack Valley Line,"Orangetown, NY",RAIL0118,N
622002.8415,804440.6915,123,BERGEN,41.04088179,-74.02914789,Montvale,Pascack Valley Line,Montvale Borough,RAIL0090,N
620085.4733,801308.642,124,BERGEN,41.03231317,-74.03615914,Park Ridge,Pascack Valley Line,Park Ridge Borough,RAIL0114,N
618799.9768,790406.1681,125,BERGEN,41.00240676,-74.04102653,Hillsdale,Pascack Valley Line,Hillsdale Borough,RAIL0062,N
621114.9715,786212.4777,126,BERGEN,40.99086221,-74.03272031,Westwood,Pascack Valley Line,Westwood Borough,RAIL0156,N
622598.0637,780470.8304,127,BERGEN,40.97508059,-74.02746033,Emerson,Pascack Valley Line,Emerson Borough,RAIL0042,N
621944.8085,772596.4947,128,BERGEN,40.95347665,-74.02997955,Oradell,Pascack Valley Line,Oradell Borough,RAIL0111,N
622213.0661,765920.0297,129,BERGEN,40.93514694,-74.02913852,River Edge,Pascack Valley Line,River Edge Borough,RAIL0132,N
620626.9991,757057.3559,130,BERGEN,40.91084363,-74.03504972,New Bridge Landing,Pascack Valley Line,River Edge Borough,RAIL0110,N
618246.0924,751074.9403,131,BERGEN,40.89445719,-74.04377699,Anderson Street-Hackensack,Pascack Valley Line,Hackensack City,RAIL0005,N
616033.9643,745430.7462,132,BERGEN,40.87899603,-74.0518833,Essex Street-Hackensack,Pascack Valley Line,Hackensack City,RAIL0043,N
613081.2845,740276.1217,133,BERGEN,40.86488822,-74.06265447,Teterboro-Williams Ave,Pascack Valley Line,Hasbrouck Heights Borough,RAIL0146,N
608654.194,732596.6561,134,BERGEN,40.84386853,-74.07879475,Wood-Ridge,Pascack Valley Line,Wood-Ridge Borough,RAIL0160,N
539535.5681,632074.76,135,MIDDLESEX,40.56857549,-74.32933426,Metropark,Northeast Corridor,Woodbridge Township,RAIL0083,Y
530917.1903,621931.3636,136,MIDDLESEX,40.54077254,-74.36041592,Metuchen,Northeast Corridor,Metuchen Borough,RAIL0084,N
516874.8782,614036.1098,137,MIDDLESEX,40.51914917,-74.41097231,Edison,Northeast Corridor,Edison Township,RAIL0038,N
507238.4821,606076.5108,138,MIDDLESEX,40.49732057,-74.44565297,New Brunswick,Northeast Corridor,New Brunswick City,RAIL0103,Y
501213.2287,598636.0559,139,MIDDLESEX,40.47690365,-74.46732927,Jersey Avenue,Northeast Corridor,New Brunswick City,RAIL0065,N
457618.4891,540160.4045,140,MERCER,40.31631585,-74.62375104,Princeton Jct.,Northeast Corridor,West Windsor Township,RAIL0125,Y
447867.5346,549580.2882,141,MERCER,40.34213264,-74.65878146,Princeton,Northeast Corridor,Princeton,RAIL0124,N
421220.8854,504612.2594,142,MERCER,40.21851526,-74.75391804,Trenton,Northeast Corridor,Trenton City,RAIL0148,Y
435157.1594,517978.6447,143,MERCER,40.25530791,-74.70412069,Hamilton,Northeast Corridor,Hamilton Township,RAIL0163,N
618622.8505,469173.8457,144,MONMOUTH,40.12062168,-74.04764353,Manasquan,North Jersey Coast Line,Manasquan Borough,RAIL0079,N
598057.0472,720243.9223,145,BERGEN,40.81009483,-74.11729322,Kingsland,Main/Bergen Line,Lyndhurst Township,RAIL0066,N
556922.7653,668008.5139,146,UNION,40.66710612,-74.26640196,Roselle Park,Raritan Valley Line,Roselle Park Borough,RAIL0031,N
601282.3367,948688.116,147,"ORANGE, NY",41.43708193,-74.10186961,Salisbury Mills-Cornwall,Port Jervis Line,"Corwall Town, NY",RAIL0135,N
556159.6963,953605.4447,148,"ORANGE, NY",41.45103013,-74.26639559,Campbell Hall,Port Jervis Line,"Hamptonburgh Town, NY",RAIL0026,N
527658.7401,955844.3277,149,"ORANGE, NY",41.45733927,-74.37035708,Middletown,Port Jervis Line,"Wallkill Town, NY",RAIL0086,N
484116.5116,961073.6922,150,"ORANGE, NY",41.47176149,-74.52922501,Otisville,Port Jervis Line,"Mount Hope Town, NY",RAIL0113,N
438579.121,925737.5841,151,"ORANGE, NY",41.37461312,-74.69511148,Port Jervis,Port Jervis Line,"Port Jervis City, NY",RAIL0123,N
577188.6775,846600.9166,152,"ROCKLAND, NY",41.15715264,-74.19107015,Sloatsburg,Port Jervis Line,"Ramapo Town, NY",RAIL0137,N
578782.3016,860100.4765,153,"ORANGE, NY",41.19419013,-74.18510519,Tuxedo,Port Jervis Line,"Tuxedo Town, NY",RAIL0149,N
591039.7564,896284.8605,154,"ORANGE, NY",41.29337582,-74.14002029,Harriman,Port Jervis Line,"Woodbury Town, NY",RAIL0057,N
387091.5006,660158.777,155,HUNTERDON,40.64517406,-74.87852493,Annandale,Raritan Valley Line,Clinton Township,RAIL0006,N
589862.2292,816737.3868,156,BERGEN,41.07505105,-74.14548507,Rte 17 Ramsey,Main/Bergen Line,Ramsey Borough,RAIL0170,N
564663.3889,674100.7032,157,UNION,40.68376947,-74.23843167,Union,Raritan Valley Line,Union Township,RAIL0166,N
575799.0766,741902.1496,158,ESSEX,40.86978387,-74.19743445,Montclair St Univ,Montclair-Boonton Line/M&E,Little Falls Township,RAIL0165,N
609623.4125,702480.9345,159,HUDSON,40.76119069,-74.07581813,Secaucus Junction Upper Level,NEC / NJCL / M&E / Main/Bergen,Secaucus,RAIL0168,N
618834.399,797208.7106,160,BERGEN,41.02107788,-74.04077218,Woodcliff Lake,Pascack Valley Line,Woodcliff Lake Borough,RAIL0159,N
622909.8839,692950.8118,161,HUDSON,40.734845,-74.028039,Hoboken Terminal,Morris & Essex Line,Hoboken City,RAIL0063,N
559302.5824,752955.1485,162,PASSAIC,40.90026454,-74.25697425,Wayne Route 23 Transit Center,Montclair-Boonton Line/M&E,Wayne Township,RAIL0172,N
455433.0112,751550.9427,163,MORRIS,40.89658975,-74.63273189,Mt Arlington,Montclair-Boonton Line/M&E,Mount Arlington Borough,RAIL0171,N
610575.1097,721367.7898,164,BERGEN,40.81302087,-74.07204981,Meadowlands Rail Station,Meadowlands Rail Line,East Rutherford Borough,RAIL0174,N
334695.835,417313.8588,165,CAMDEN,39.97777011,-75.06179235,Pennsauken Transit Center,Atlantic City Line,Pennsauken Township,RAIL0183,N
609623.4125,702480.9345,166,HUDSON,40.76119069,-74.07581813,Secaucus Junction Lower Level,NEC / NJCL / M&E / Main&Bergen,Secaucus Town,RAIL0167,N
621076.3361,690066.2382,167,HUDSON,40.72695391,-74.03471064,Pavonia/Newport,PATH,Jersey City,PATH01,N
622692.9343,693169.6559,168,HUDSON,40.73544891,-74.02881764,Hoboken,PATH,Hoboken City,PATH02,N
633913.9118,698216.6035,169,"NEW YORK CITY, NY",40.74912991,-73.98821964,33rd St.,PATH,"New York City, NY",PATH03,N
632658.1515,695936.0126,170,"NEW YORK CITY, NY",40.74288991,-73.99279964,23rd St.,PATH,"New York City, NY",PATH04,N
631553.0556,693918.6583,171,"NEW YORK CITY, NY",40.73736991,-73.99682964,14th St.,PATH,"New York City, NY",PATH05,N
630930.7167,692793.0244,172,"NEW YORK CITY, NY",40.73428991,-73.99909864,9th St.,PATH,"New York City, NY",PATH06,N
628766.2725,692272.1964,173,"NEW YORK CITY, NY",40.73289391,-74.00691964,Christopher St.,PATH,"New York City, NY",PATH07,N
627365.0985,684393.4815,174,"NEW YORK CITY, NY",40.71128891,-74.01213364,World Trade Center,PATH,"New York City, NY",PATH08,N
621453.1664,686432.4495,175,HUDSON,40.71697391,-74.03342064,Exchange Place,PATH,Jersey City,PATH09,N
618845.4272,687321.4884,176,HUDSON,40.71945191,-74.04281164,Grove St.,PATH,Jersey City,PATH10,N
613237.6595,691855.8777,177,HUDSON,40.73197691,-74.06296164,Journal Square,PATH,Jersey City,PATH11,N
587473.5316,694383.9327,178,HUDSON,40.73923091,-74.15589464,Harrison,PATH,Harrison Town,PATH12,N
585134.0471,692490.3387,179,ESSEX,40.73405791,-74.16436364,Newark Penn Station,PATH,Newark City,PATH13,N
601002.7791,669888.1716,180,HUDSON,40.67183492,-74.10746466,E. 34th St.,Hudson-Bergen Light Rail,Bayonne City,30844,N
602606.5,672394.4957,181,HUDSON,40.67869493,-74.10164197,E. 45th St.,Hudson-Bergen Light Rail,Bayonne City,30843,N
606569.4842,677391.6061,182,HUDSON,40.69236168,-74.08726856,Danforth Ave.,Hudson-Bergen Light Rail,Jersey City,30842,N
608951.1405,679875.042,183,HUDSON,40.6991476,-74.07863665,Richard St.,Hudson-Bergen Light Rail,Jersey City,30841,N
606444.0586,685477.2162,184,HUDSON,40.714558,-74.087584,West Side Ave.,Hudson-Bergen Light Rail,Jersey City,30840,N
609289.5854,684594.8436,185,HUDSON,40.71209879,-74.0773341,Martin Luther King Dr.,Hudson-Bergen Light Rail,Jersey City,30839,N
611021.2801,684048.5764,186,HUDSON,40.71057627,-74.07109687,Garfield Ave.,Hudson-Bergen Light Rail,Jersey City,30838,N
615258.5069,683996.3074,187,HUDSON,40.710375,-74.055813,Liberty State Park,Hudson-Bergen Light Rail,Jersey City,30837,N
617281.721,685685.0524,188,HUDSON,40.7149822,-74.04848344,Jersey Ave.,Hudson-Bergen Light Rail,Jersey City,30836,N
618734.2581,685493.579,189,HUDSON,40.714436,-74.043247,Marin Blvd.,Hudson-Bergen Light Rail,Jersey City,30835,N
620725.0927,684922.9434,190,HUDSON,40.712841,-74.036076,Essex St.,Hudson-Bergen Light Rail,Jersey City,30834,N
621269.2596,686083.3548,191,HUDSON,40.71601835,-74.03409078,Exchange Pl.,Hudson-Bergen Light Rail,Jersey City,30833,N
621258.4607,687136.6906,192,HUDSON,40.71890985,-74.03410958,Harborside,Hudson-Bergen Light Rail,Jersey City,30832,N
620370.6912,688504.9999,193,HUDSON,40.72267865,-74.03728639,Harismus Cove,Hudson-Bergen Light Rail,Jersey City,30831,N
620654.6066,690014.8813,194,HUDSON,40.72681907,-74.03623328,Newport,Hudson-Bergen Light Rail,Jersey City,30830,N
622589.4046,692659.6516,195,HUDSON,40.73405051,-74.0292011,Hoboken Terminal,Hudson-Bergen Light Rail,Hoboken City,30829,N
598525.5754,666040.6616,196,HUDSON,40.66130356,-74.116456,E. 22nd St.,Hudson-Bergen Light Rail,Bayonne City,30845,N
619980.5791,698047.5697,197,HUDSON,40.74887797,-74.03851291,9th St./Congress St.,Hudson-Bergen Light Rail,Hoboken City,30827,N
618803.4256,695440.7842,198,HUDSON,40.74173944,-74.04281065,2nd St.,Hudson-Bergen Light Rail,Jersey City,30828,N
623976.2611,702631.6409,199,HUDSON,40.76140229,-74.02400147,Lincoln Harbor,Hudson-Bergen Light Rail,Weehawken Township,30826,N
627050.2438,707954.7841,200,HUDSON,40.7759675,-74.0127977,Port Imperial,Hudson-Bergen Light Rail,Weehawken Township,30825,N
624238.9984,710353.7698,201,HUDSON,40.7825949,-74.02290139,Bergenline Ave.,Hudson-Bergen Light Rail,Union City,30824,N
621915.5772,712064.7923,202,HUDSON,40.78732587,-74.03125859,Tonnelle Ave.,Hudson-Bergen Light Rail,North Bergen Township,30823,N
581251.9961,706421.2547,203,ESSEX,40.77233771,-74.17818803,Davenport Ave.,Newark Light Rail,Newark City,30763,N
585375.6227,692807.363,204,ESSEX,40.7349256,-74.16348751,Newark Penn Station,Newark Light Rail,Newark City,30771,N
583348.2127,693713.9507,205,ESSEX,40.73743526,-74.17079142,Military Park,Newark Light Rail,Newark City,30770,N
582448.5991,694043.4566,206,ESSEX,40.73834895,-74.1740335,Washington St.,Newark Light Rail,Newark City,30769,N
580460.7612,695515.2601,207,ESSEX,40.74240905,-74.18118796,Warren St.,Newark Light Rail,Newark City,30768,N
579952.7199,696581.7754,208,ESSEX,40.74534166,-74.1830076,Norfolk St.,Newark Light Rail,Newark City,30767,N
582218.0723,709084.4075,209,ESSEX,40.77963817,-74.1746642,Branch Brook Park,Newark Light Rail,Newark City,30762,N
580792.0509,703905.0183,210,ESSEX,40.76543536,-74.17988189,Bloomfield Ave.,Newark Light Rail,Newark City,30764,N
579410.2242,698503.9838,211,ESSEX,40.75062343,-74.18494068,Orange St.,Newark Light Rail,Newark City,30766,N
579388.5215,701382.7792,212,ESSEX,40.75852584,-74.18498172,Park Ave.,Newark Light Rail,Newark City,30765,N
580565.2439,709329.1285,213,ESSEX,40.78032659,-74.18062944,Silver Lake,Newark Light Rail,Belleville Township,30761,N
578535.4727,709366.1478,214,ESSEX,40.78044825,-74.18795866,Grove St.,Newark Light Rail,Bloomfield Township,30539,N
584789.4392,694471.8226,215,ESSEX,40.73950064,-74.16557995,NJPAC/Center St.,Newark Light Rail,Newark City,30772,N
583976.8611,696166.745,216,ESSEX,40.74416161,-74.16848935,Atlantic St.,Newark Light Rail,Newark City,30773,N
583600.4475,696085.8889,217,ESSEX,40.74394356,-74.16984897,Washington Park,Newark Light Rail,Newark City,30776,N
583649.99,696840.6886,218,ESSEX,40.74601495,-74.16965991,Riverfront Stadium,Newark Light Rail,Newark City,30774,N
583136.8907,697272.5834,219,ESSEX,40.74720577,-74.17150598,Broad St. Station,Newark Light Rail,Newark City,30775,N
420895.3795,504561.0607,220,MERCER,40.21837215,-74.75508319,Trenton,River LINE,Trenton City,30855,N
420698.1899,502218.8839,221,MERCER,40.21194075,-74.75576517,Hamilton Ave.,River LINE,Trenton City,30856,N
421107.2705,499845.156,222,MERCER,40.20542752,-74.754276,Cass St.,River LINE,Trenton City,30857,N
431679.0233,478967.2729,223,BURLINGTON,40.14818913,-74.71624254,Bordentown,River LINE,Bordentown City,30858,N
416551.6421,467608.2399,224,BURLINGTON,40.11689175,-74.77023597,Roebling,River LINE,Florence Township,30859,N
406778.2932,461487.0687,225,BURLINGTON,40.10000062,-74.80510807,Florence,River LINE,Florence Township,30860,N
391550.056,453300.8079,226,BURLINGTON,40.0773709,-74.85942872,Burlington Town Centre,River LINE,Burlington City,30861,N
388865.5427,452299.9211,227,BURLINGTON,40.07459303,-74.86900746,Burlington South,River LINE,Burlington City,30862,N
375912.0197,447440.1578,228,BURLINGTON,40.061095,-74.915216,Beverly/Edgewater Park,River LINE,Beverly City,30863,N
366050.65,442755.431,229,BURLINGTON,40.04810258,-74.95036392,Delanco,River LINE,Delanco Township,30864,N
363647.1453,439546.7301,230,BURLINGTON,40.03926017,-74.95889042,Riverside,River LINE,Riverside Township,30865,N
352096.6825,431373.6677,231,BURLINGTON,40.01665234,-74.9999805,Cinnaminson,River LINE,Cinnaminson Township,30866,N
348411.9385,428594.1647,232,BURLINGTON,40.00896439,-75.01307949,Riverton,River LINE,Riverton Borough,30867,N
346156.9017,426894.5408,233,BURLINGTON,40.00426257,-75.02109456,Palmyra,River LINE,Palmyra Borough,30868,N
341097.653,422972.8774,234,CAMDEN,39.99341402,-75.03907027,Pennsauken/Route 73,River LINE,Pennsauken Township,30869,N
329808.1011,411336.4374,235,CAMDEN,39.96127479,-75.07909511,36th St.,River LINE,Pennsauken Township,30870,N
317145.778,406398.6405,236,CAMDEN,39.94748495,-75.12414458,Cooper St./Rutgers,River LINE,Camden City,30872,N
315872.4363,405730.4371,237,CAMDEN,39.94562604,-75.1286695,Aquarium,River LINE,Camden City,30873,N
315910.6879,404014.3352,238,CAMDEN,39.94091568,-75.12848996,Entertainment Ctr.,River LINE,Camden City,30874,N
595072.522,663471.7435,239,HUDSON,40.65429256,-74.1289421,8th St.,Hudson-Bergen Light Rail,Bayonne City,31145,N
334646.3663,417506.305,240,CAMDEN,39.97829757,-75.0619732,Pennsauken Transit Ctr.,River LINE,Pennsauken Township,31898,N
305043.9485,406715.6369,241,"PHILADELPHIA, PA",39.94811475,-75.16731715,15-16th & Locust St.,PATCO Speedline,"Philadelphia, PA",PATCO01,N
306573.8726,406484.9514,242,"PHILADELPHIA, PA",39.94751276,-75.16185417,12-13th & Locust St.,PATCO Speedline,"Philadelphia, PA",PATCO02,N
307927.2209,406258.5735,243,"PHILADELPHIA, PA",39.94691876,-75.15702118,9-10th & Locust St.,PATCO Speedline,"Philadelphia, PA",PATCO03,N
308893.0005,407623.684,244,"PHILADELPHIA, PA",39.95068575,-75.15361218,8Th & Market,PATCO Speedline,"Philadelphia, PA",PATCO04,N
317990.9826,405518.6649,245,CAMDEN,39.9450854,-75.12110809,City Hall,PATCO Speedline,Camden City,PATCO05,N
318334.1548,404758.7088,246,CAMDEN,39.94300569,-75.11986529,Broadway,PATCO Speedline,Camden City,PATCO06,N
326166.2104,397255.354,247,CAMDEN,39.92255306,-75.09175447,Ferry Ave.,PATCO Speedline,Camden City,PATCO07,N
333737.2796,393956.5056,248,CAMDEN,39.91363144,-75.0646854,Collingswood,PATCO Speedline,Collingswood Borough,PATCO08,N
338787.757,391512.9537,249,CAMDEN,39.90700947,-75.04662685,Westmont,PATCO Speedline,Haddon Township,PATCO09,N
341498.7683,388019.5857,250,CAMDEN,39.8974643,-75.03688801,Haddonfield,PATCO Speedline,Haddonfield Borough,PATCO10,N
348630.07,378037.8721,251,CAMDEN,39.87017623,-75.01126679,Woodcrest,PATCO Speedline,Cherry Hill Township,PATCO11,N
349176.4636,373852.6101,252,CAMDEN,39.85869489,-75.00923514,Ashland,PATCO Speedline,Voorhees Township,PATCO12,N
351629.897,364774.6939,253,CAMDEN,39.83381099,-75.00031449,Lindenwold,PATCO Speedline,Lindenwold Borough,PATCO13,N
318205.0754,404814.4301,254,CAMDEN,39.9431562,-75.12032703,Walter Rand Transportation Center,River LINE,Camden City,30871,N
603612.2647,736619.2435,255,Bergen,40.85497522,-74.09695192,Wesmont,Main/Bergen Line,Wallington Borough, ,N
404077.8393,518801.1027,256,MERCER,40.25731573,-74.81548975,West Trenton,West Trenton Line,Ewing Township,,N
376670.7606,483694.1805,257,"BUCKS, PA",40.16063087,-74.91310687,Langhorne,West Trenton Line,"Middletown Township, PA",,N
326412.9792,466024.6151,258,"MONTGOMERY, PA",40.11134393,-75.09250511,Meadowbrook,West Trenton Line,"Abington Township, PA",,N
362940.4977,478738.6963,259,"BUCKS, PA",40.14684134,-74.96214148,Neshaminy Falls,West Trenton Line,"Bensalem Township, PA",,N
346518.0014,471925.8064,260,"PHILADELPHIA, PA",40.1278893,-75.02074596,Forest Hills,West Trenton Line,"Philadelphia, PA",,N
321328.6033,464615.3666,261,"MONTGOMERY, PA",40.1073809,-75.11064879,Rydal,West Trenton Line,"Abington Township, PA",,N
382925.841,494678.0433,262,"BUCKS, PA",40.1908617,-74.89089905,Woodbourne,West Trenton Line,"Middletown Township, PA",,N
348955.8075,472907.0984,263,"PHILADELPHIA, PA",40.13062202,-75.01204798,Somerton,West Trenton Line,"Philadelphia, PA",,N
333081.0318,467856.1003,264,"MONTGOMERY, PA",40.1164912,-75.06870643,Bethayres,West Trenton Line,"Lower Moreland Township, PA",,N
399725.0049,510716.5848,265,"BUCKS, PA",40.23507849,-74.83097843,Yardley,West Trenton Line,"Yardley Borough, PA",,N
340062.8171,469773.6388,266,"MONTGOMERY, PA",40.1218751,-75.04378411,Philmont,West Trenton Line,"Lower Moreland Township, PA",,N
357163.6733,476330.4892,267,"BUCKS, PA",40.14014601,-74.98275987,Trevose,West Trenton Line,"Bensalem Township, PA",,N
313719.8793,459514.7882,268,"MONTGOMERY, PA",40.09323243,-75.13771998,Jenkintown-Wyncote,West Trenton Line,"Jenkintown Borough, PA",,N
317445.5789,463542.0521,269,"MONTGOMERY, PA",40.10436046,-75.12450406,Noble,West Trenton Line,"Abington Township, PA",,N
316479.9151,451482.1245,270,Montgomery,40.07123533,-75.12765211,Elkins Park,West Trenton Line,"Cheltenham Township, PA",,N
314400.5859,440491.6235,271,Philadelphia,40.041024,-75.13480196,Fern Rock Transportation Center,West Trenton Line,"Philadelphia, PA",,N
307300.1786,433791.6363,272,"PHILADELPHIA, PA",40.02248967,-75.15998457,Wayne Junction,West Trenton Line,"Philadelphia, PA",,N
310120.3307,418898.5735,273,"PHILADELPHIA, PA",39.98166227,-75.14952726,Temple University,West Trenton Line,"Philadelphia, PA",,N
307560.5553,408338.0933,274,"PHILADELPHIA, PA",39.95262006,-75.1583837,Jefferson Station,West Trenton Line,"Philadelphia, PA",,N
305054.4993,408931.144,275,"PHILADELPHIA, PA",39.95419699,-75.16733863,Suburban Station,West Trenton Line,"Philadelphia, PA",,N
308537.8506,424593.7691,276,"PHILADELPHIA, PA",39.99726491,-75.15532377,North Philadelphia,Trenton Line,"Philadelphia, PA",,Y
365567.959,451382.4242,277,"BUCKS, PA",40.07177917,-74.95224469,Cornwells Heights,Trenton Line,"Bensalem Township, PA",,Y
356507.675,445110.8679,278,"PHILADELPHIA, PA",40.05443133,-74.9844981,Torresdale,Trenton Line,"Philadelphia, PA",,N
345444.2492,437239.0447,279,"PHILADELPHIA, PA",40.03264931,-75.02385568,Holmesburg Junction,Trenton Line,"Philadelphia, PA",,N
332507.3181,429327.886,280,"PHILADELPHIA, PA",40.01071334,-75.06987586,Bridesburg,Trenton Line,"Philadelphia, PA",,N
392929.7707,463373.0052,281,"BUCKS, PA",40.10503703,-74.85464155,Bristol,Trenton Line,"Bristol Borough, PA",,N
378384.4383,459260.1716,282,"BUCKS, PA",40.09357537,-74.90657548,Croydon,Trenton Line,"Bristol Township, PA",,N
370776.7176,455441.5618,283,"BUCKS, PA",40.0829937,-74.93370268,Eddington,Trenton Line,"Bensalem Township, PA",,N
341176.327,433831.875,284,"PHILADELPHIA, PA",40.02322593,-75.03902389,Tacony,Trenton Line,"Philadelphia, PA",,N
403499.4921,476163.107,285,"BUCKS, PA",40.14025884,-74.81701644,Levittown,Trenton Line,"Tullytown Borough, PA",,N